[{"OBJECT_NAME":"YAOGAN-30 02B","OBJECT_ID":"2017-058B","EPOCH":"2026-03-09T22:20:48.449184","MEAN_MOTION":15.02255785,"ECCENTRICITY":0.00019399,"INCLINATION":34.9967,"RA_OF_ASC_NODE":274.9762,"ARG_OF_PERICENTER":191.875,"MEAN_ANOMALY":168.1912,"EPHEMERIS_TYPE":0,"CLASSIFICATION_TYPE":"U","NORAD_CAT_ID":42946,"ELEMENT_SET_NO":999,"REV_AT_EPOCH":46092,"BSTAR":0.0003113928,"MEAN_MOTION_DOT":4.165e-5,"MEAN_MOTION_DDOT":0},{"OBJECT_NAME":"STARLINK-6104","OBJECT_ID":"2023-046AM","EPOCH":"2026-03-08T13:53:57.664896","MEAN_MOTION":15.02539221,"ECCENTRICITY":0.00012202,"INCLINATION":43.0037,"RA_OF_ASC_NODE":152.1144,"ARG_OF_PERICENTER":269.6844,"MEAN_ANOMALY":90.3859,"EPHEMERIS_TYPE":0,"CLASSIFICATION_TYPE":"U","NORAD_CAT_ID":56127,"ELEMENT_SET_NO":999,"REV_AT_EPOCH":16204,"BSTAR":4.3048361e-5,"MEAN_MOTION_DOT":3.78e-6,"MEAN_MOTION_DDOT":0}]
